{
    "links": {
        "self": "http://www.neowsapp.com/rest/v1/neo/3120870?api_key=iIulBulltgU6a56xZRHN4H3l9WmuAYTsLGpBGhQ2"
    },
    "id": "3120870",
    "neo_reference_id": "3120870",
    "name": "(2002 GK1)",
    "designation": "2002 GK1",
    "nasa_jpl_url": "http://ssd.jpl.nasa.gov/sbdb.cgi?sstr=3120870",
    "absolute_magnitude_h": 22.5,
    "estimated_diameter": {
        "kilometers": {
            "estimated_diameter_min": 0.0840533402,
            "estimated_diameter_max": 0.1879489824
        },
        "meters": {
            "estimated_diameter_min": 84.0533402073,
            "estimated_diameter_max": 187.9489824394
        },
        "miles": {
            "estimated_diameter_min": 0.0522283081,
            "estimated_diameter_max": 0.1167860472
        },
        "feet": {
            "estimated_diameter_min": 275.7655606856,
            "estimated_diameter_max": 616.6305395464
        }
    },
    "is_potentially_hazardous_asteroid": false,
    "close_approach_data": [
        {
            "close_approach_date": "2000-04-22",
            "close_approach_date_full": "2000-Apr-22 00:39",
            "epoch_date_close_approach": 956363940000,
            "relative_velocity": {
                "kilometers_per_second": "5.4403320135",
                "kilometers_per_hour": "19585.1952485617",
                "miles_per_hour": "12169.4786809743"
            },
            "miss_distance": {
                "astronomical": "1.1982692291",
                "lunar": "466.1267301199",
                "kilometers": "179258524.359902017",
                "miles": "111386081.9959891546"
            },
            "orbiting_body": "Juptr"
        },
        {
            "close_approach_date": "2002-04-11",
            "close_approach_date_full": "2002-Apr-11 09:20",
            "epoch_date_close_approach": 1018516800000,
            "relative_velocity": {
                "kilometers_per_second": "13.8337023837",
                "kilometers_per_hour": "49801.3285812714",
                "miles_per_hour": "30944.6088620683"
            },
            "miss_distance": {
                "astronomical": "0.0208930304",
                "lunar": "8.1273888256",
                "kilometers": "3125552.845685248",
                "miles": "1942128.4806145024"
            },
            "orbiting_body": "Earth"
        }
    ],
    "orbital_data": {
        "orbit_id": "12",
        "orbit_determination_date": "2017-04-06 09:15:15",
        "first_observation_date": "2002-04-04",
        "last_observation_date": "2002-04-10",
        "data_arc_in_days": 6,
        "observations_used": 49,
        "orbit_uncertainty": "8",
        "minimum_orbit_intersection": ".00430638",
        "jupiter_tisserand_invariant": "3.110",
        "epoch_osculation": "2452371.5",
        "eccentricity": ".6251016584966804",
        "semi_major_axis": "2.536421253341855",
        "inclination": "13.67246202586736",
        "ascending_node_longitude": "23.00979395938614",
        "orbital_period": "1475.470403052078",
        "perihelion_distance": ".9509001212316327",
        "perihelion_argument": "211.6736888544616",
        "aphelion_distance": "4.121942385452078",
        "perihelion_time": "2452400.783639239949",
        "mean_anomaly": "352.855085331041",
        "mean_motion": ".2439899839775326",
        "equinox": "J2000",
        "orbit_class": {
            "orbit_class_type": "APO",
            "orbit_class_description": "Near-Earth asteroid orbits which cross the Earth’s orbit similar to that of 1862 Apollo",
            "orbit_class_range": "a (semi-major axis) > 1.0 AU; q (perihelion) < 1.017 AU"
        }
    },
    "is_sentry_object": false
}